{"type": "FeatureCollection", "features": [ {"type": "Feature", "properties": {"norad_id": 66579, "name": "STARLINK-35868", "group": "last-30-days", "lat": -15.41134186149637, "lon": 112.34575576936187, "alt_km": 416.08466454001064, "timestamp": "2025-12-11T07:02:22.477767+00:00", "meta": {"OBJECT_NAME": "STARLINK-35868", "OBJECT_ID": "2025-268Y", "EPOCH": "2025-12-10T22:00:03.000096", "MEAN_MOTION": 15.50601068, "ECCENTRICITY": 0.00017225, "INCLINATION": 43.0001, "RA_OF_ASC_NODE": 131.7558, "ARG_OF_PERICENTER": 273.3636, "MEAN_ANOMALY": 118.9491, "EPHEMERIS_TYPE": 0, "CLASSIFICATION_TYPE": "U", "NORAD_CAT_ID": 66579, "ELEMENT_SET_NO": 999, "REV_AT_EPOCH": 437, "BSTAR": -0.001122811, "MEAN_MOTION_DOT": -0.00065714, "MEAN_MOTION_DDOT": 0}, "tle": {"line1": "1 66579U 25268Y   25344.91670139 -.00065714  00000+0 -11228-2 0  9990", "line2": "2 66579  43.0001 131.7558 0001722 273.3636 118.9491 15.50601068  4374"}}, "geometry": {"type": "Point", "coordinates": [112.34575576936187, -15.41134186149637]}}, {"type": "Feature", "properties": {"norad_id": 66580, "name": "STARLINK-35872", "group": "last-30-days", "lat": -14.156144319206595, "lon": 113.843705981733, "alt_km": 415.98546471959617, "timestamp": "2025-12-11T07:02:22.477779+00:00", "meta": {"OBJECT_NAME": "STARLINK-35872", "OBJECT_ID": "2025-268Z", "EPOCH": "2025-12-10T22:00:03.000096", "MEAN_MOTION": 15.50609733, "ECCENTRICITY": 0.000165, "INCLINATION": 43.0001, "RA_OF_ASC_NODE": 131.7513, "ARG_OF_PERICENTER": 275.8488, "MEAN_ANOMALY": 118.382, "EPHEMERIS_TYPE": 0, "CLASSIFICATION_TYPE": "U", "NORAD_CAT_ID": 66580, "ELEMENT_SET_NO": 999, "REV_AT_EPOCH": 437, "BSTAR": -0.0013996954, "MEAN_MOTION_DOT": -0.00081694, "MEAN_MOTION_DDOT": 0}, "tle": {"line1": "1 66580U 25268Z   25344.91670139 -.00081694  00000+0 -13997-2 0  9992", "line2": "2 66580  43.0001 131.7513 0001650 275.8488 118.3820 15.50609733  4376"}}, "geometry": {"type": "Point", "coordinates": [113.843705981733, -14.156144319206595]}}, {"type": "Feature", "properties": {"norad_id": 66581, "name": "STARLINK-35744", "group": "last-30-days", "lat": -12.922409579629557, "lon": 115.2881897400327, "alt_km": 416.0889594448181, "timestamp": "2025-12-11T07:02:22.477789+00:00", "meta": {"OBJECT_NAME": "STARLINK-35744", "OBJECT_ID": "2025-268AA", "EPOCH": "2025-12-10T22:00:03.000096", "MEAN_MOTION": 15.50512103, "ECCENTRICITY": 0.0001573, "INCLINATION": 43.0001, "RA_OF_ASC_NODE": 131.7455, "ARG_OF_PERICENTER": 267.1355, "MEAN_ANOMALY": 129.0411, "EPHEMERIS_TYPE": 0, "CLASSIFICATION_TYPE": "U", "NORAD_CAT_ID": 66581, "ELEMENT_SET_NO": 999, "REV_AT_EPOCH": 432, "BSTAR": 0.00062411966, "MEAN_MOTION_DOT": 0.00036355, "MEAN_MOTION_DDOT": 0}, "tle": {"line1": "1 66581U 25268AA  25344.91670139  .00036355  00000+0  62412-3 0  9992", "line2": "2 66581  43.0001 131.7455 0001573 267.1355 129.0411 15.50512103  4327"}}, "geometry": {"type": "Point", "coordinates": [115.2881897400327, -12.922409579629557]}}, {"type": "Feature", "properties": {"norad_id": 66582, "name": "STARLINK-35746", "group": "last-30-days", "lat": -11.623481509866687, "lon": 116.78507456418414, "alt_km": 415.72435694227806, "timestamp": "2025-12-11T07:02:22.477799+00:00", "meta": {"OBJECT_NAME": "STARLINK-35746", "OBJECT_ID": "2025-268AB", "EPOCH": "2025-12-10T22:00:03.000096", "MEAN_MOTION": 15.50607666, "ECCENTRICITY": 0.00017872, "INCLINATION": 43, "RA_OF_ASC_NODE": 131.7411, "ARG_OF_PERICENTER": 277.1193, "MEAN_ANOMALY": 120.9447, "EPHEMERIS_TYPE": 0, "CLASSIFICATION_TYPE": "U", "NORAD_CAT_ID": 66582, "ELEMENT_SET_NO": 999, "REV_AT_EPOCH": 437, "BSTAR": -0.0013256479, "MEAN_MOTION_DOT": -0.00077428, "MEAN_MOTION_DDOT": 0}, "tle": {"line1": "1 66582U 25268AB  25344.91670139 -.00077428  00000+0 -13256-2 0  9992", "line2": "2 66582  43.0000 131.7411 0001787 277.1193 120.9447 15.50607666  4370"}}, "geometry": {"type": "Point", "coordinates": [116.78507456418414, -11.623481509866687]}}, {"type": "Feature", "properties": {"norad_id": 66583, "name": "STARLINK-35941", "group": "last-30-days", "lat": -10.344648194629988, "lon": 118.2363365167512, "alt_km": 415.64640939422134, "timestamp": "2025-12-11T07:02:22.477809+00:00", "meta": {"OBJECT_NAME": "STARLINK-35941", "OBJECT_ID": "2025-268AC", "EPOCH": "2025-12-10T22:00:03.000096", "MEAN_MOTION": 15.50608739, "ECCENTRICITY": 0.00017891, "INCLINATION": 43.0001, "RA_OF_ASC_NODE": 131.7362, "ARG_OF_PERICENTER": 276.4069, "MEAN_ANOMALY": 123.5766, "EPHEMERIS_TYPE": 0, "CLASSIFICATION_TYPE": "U", "NORAD_CAT_ID": 66583, "ELEMENT_SET_NO": 999, "REV_AT_EPOCH": 437, "BSTAR": -0.00141749, "MEAN_MOTION_DOT": -0.00082716, "MEAN_MOTION_DDOT": 0}, "tle": {"line1": "1 66583U 25268AC  25344.91670139 -.00082716  00000+0 -14175-2 0  9990", "line2": "2 66583  43.0001 131.7362 0001789 276.4069 123.5766 15.50608739  4378"}}, "geometry": {"type": "Point", "coordinates": [118.2363365167512, -10.344648194629988]}}, {"type": "Feature", "properties": {"norad_id": 66584, "name": "STARLINK-35939", "group": "last-30-days", "lat": -9.020079492954949, "lon": 119.71986048975936, "alt_km": 415.34310319952783, "timestamp": "2025-12-11T07:02:22.477821+00:00", "meta": {"OBJECT_NAME": "STARLINK-35939", "OBJECT_ID": "2025-268AD", "EPOCH": "2025-12-10T22:00:03.000096", "MEAN_MOTION": 15.50672797, "ECCENTRICITY": 0.00018163, "INCLINATION": 43.0001, "RA_OF_ASC_NODE": 131.7318, "ARG_OF_PERICENTER": 280.2612, "MEAN_ANOMALY": 121.6293, "EPHEMERIS_TYPE": 0, "CLASSIFICATION_TYPE": "U", "NORAD_CAT_ID": 66584, "ELEMENT_SET_NO": 999, "REV_AT_EPOCH": 437, "BSTAR": -0.0019861804, "MEAN_MOTION_DOT": -0.00115548, "MEAN_MOTION_DDOT": 0}, "tle": {"line1": "1 66584U 25268AD  25344.91670139 -.00115548  00000+0 -19862-2 0  9999", "line2": "2 66584  43.0001 131.7318 0001816 280.2612 121.6293 15.50672797  4377"}}, "geometry": {"type": "Point", "coordinates": [119.71986048975936, -9.020079492954949]}}, {"type": "Feature", "properties": {"norad_id": 66585, "name": "STARLINK-35963", "group": "last-30-days", "lat": -7.772882558934471, "lon": 121.10032475662254, "alt_km": 415.558974902694, "timestamp": "2025-12-11T07:02:22.477859+00:00", "meta": {"OBJECT_NAME": "STARLINK-35963", "OBJECT_ID": "2025-268AE", "EPOCH": "2025-12-10T22:00:03.000096", "MEAN_MOTION": 15.50601248, "ECCENTRICITY": 0.00016028, "INCLINATION": 43.0002, "RA_OF_ASC_NODE": 131.7269, "ARG_OF_PERICENTER": 271.5896, "MEAN_ANOMALY": 132.2283, "EPHEMERIS_TYPE": 0, "CLASSIFICATION_TYPE": "U", "NORAD_CAT_ID": 66585, "ELEMENT_SET_NO": 999, "REV_AT_EPOCH": 437, "BSTAR": -0.0011820632, "MEAN_MOTION_DOT": -0.00069134, "MEAN_MOTION_DDOT": 0}, "tle": {"line1": "1 66585U 25268AE  25344.91670139 -.00069134  00000+0 -11821-2 0  9996", "line2": "2 66585  43.0002 131.7269 0001602 271.5896 132.2283 15.50601248  4374"}}, "geometry": {"type": "Point", "coordinates": [121.10032475662254, -7.772882558934471]}}, {"type": "Feature", "properties": {"norad_id": 66586, "name": "TJS-21", "group": "last-30-days", "lat": 44.46691651860342, "lon": -167.8535573094895, "alt_km": 24324.158345351567, "timestamp": "2025-12-11T07:02:22.477876+00:00", "meta": {"OBJECT_NAME": "TJS-21", "OBJECT_ID": "2025-269A", "EPOCH": "2025-12-09T17:35:27.978144", "MEAN_MOTION": 2.00565752, "ECCENTRICITY": 0.68056573, "INCLINATION": 63.268, "RA_OF_ASC_NODE": 162.6671, "ARG_OF_PERICENTER": 269.7843, "MEAN_ANOMALY": 18.6559, "EPHEMERIS_TYPE": 0, "CLASSIFICATION_TYPE": "U", "NORAD_CAT_ID": 66586, "ELEMENT_SET_NO": 999, "REV_AT_EPOCH": 37, "BSTAR": -0.041606579, "MEAN_MOTION_DOT": 1.08e-05, "MEAN_MOTION_DDOT": 0}, "tle": {"line1": "1 66586U 25269A   25343.73296271  .00001080  00000+0 -41607-1 0  9997", "line2": "2 66586  63.2680 162.6671 6805657 269.7843  18.6559  2.00565752   379"}}, "geometry": {"type": "Point", "coordinates": [-167.8535573094895, 44.46691651860342]}}, {"type": "Feature", "properties": {"norad_id": 66587, "name": "CZ-3B R/B", "group": "last-30-days", "lat": -8.532386281222847, "lon": 163.0018056659873, "alt_km": 12162.099297019435, "timestamp": "2025-12-11T07:02:22.477890+00:00", "meta": {"OBJECT_NAME": "CZ-3B R/B", "OBJECT_ID": "2025-269B", "EPOCH": "2025-12-10T07:44:42.689184", "MEAN_MOTION": 2.03033273, "ECCENTRICITY": 0.75196659, "INCLINATION": 51.3444, "RA_OF_ASC_NODE": 170.2038, "ARG_OF_PERICENTER": 228.2816, "MEAN_ANOMALY": 37.6674, "EPHEMERIS_TYPE": 0, "CLASSIFICATION_TYPE": "U", "NORAD_CAT_ID": 66587, "ELEMENT_SET_NO": 999, "REV_AT_EPOCH": 40, "BSTAR": 0.0011971439, "MEAN_MOTION_DOT": 0.00055207, "MEAN_MOTION_DDOT": 9.80452e-07}, "tle": {"line1": "1 66587U 25269B   25344.32271631  .00055207  98045-6  11971-2 0  9991", "line2": "2 66587  51.3444 170.2038 7519665 228.2816  37.6674  2.03033273   404"}}, "geometry": {"type": "Point", "coordinates": [163.0018056659873, -8.532386281222847]}}, {"type": "Feature", "properties": {"norad_id": 66588, "name": "STARLINK-36076", "group": "last-30-days", "lat": -28.071556172863147, "lon": 56.110122143596676, "alt_km": 417.8296184134979, "timestamp": "2025-12-11T07:02:22.477902+00:00", "meta": {"OBJECT_NAME": "STARLINK-36076", "OBJECT_ID": "2025-270A", "EPOCH": "2025-12-10T22:00:03.000096", "MEAN_MOTION": 15.51066224, "ECCENTRICITY": 0.00011052, "INCLINATION": 43.0002, "RA_OF_ASC_NODE": 203.4021, "ARG_OF_PERICENTER": 226.6623, "MEAN_ANOMALY": 52.0151, "EPHEMERIS_TYPE": 0, "CLASSIFICATION_TYPE": "U", "NORAD_CAT_ID": 66588, "ELEMENT_SET_NO": 999, "REV_AT_EPOCH": 410, "BSTAR": -0.018760083, "MEAN_MOTION_DOT": -0.01020407, "MEAN_MOTION_DDOT": 0}, "tle": {"line1": "1 66588U 25270A   25344.91670139 -.01020407  00000+0 -18760-1 0  9991", "line2": "2 66588  43.0002 203.4021 0001105 226.6623  52.0151 15.51066224  4101"}}, "geometry": {"type": "Point", "coordinates": [56.110122143596676, -28.071556172863147]}}]}